NORAD_CAT_ID,OBJECT_NAME,OBJECT_TYPE,EPOCH,MEAN_MOTION,ECCENTRICITY,INCLINATION,RA_OF_ASC_NODE,ARG_OF_PERICENTER,MEAN_ANOMALY,BSTAR,MEAN_MOTION_DOT,MEAN_MOTION_DDOT,TLE_LINE0,TLE_LINE1,TLE_LINE2,SEMIMAJOR_AXIS,PERIOD,APOGEE,PERIGEE,DECAYED
51853.0,STARLINK-3539,PAYLOAD,2023-03-03 21:17:59,15.08875001,9.06e-05,53.2139,285.3127,89.7552,270.3544,0.00086861,0.00013576,0.0,0 STARLINK-3539,1 51853U 22022B   23062.88749033  .00013576  00000-0  86861-3 0  9999,2 51853  53.2139 285.3127 0000906  89.7552 270.3544 15.08875001 56625,6917.773,95.435,540.265,539.012,0.0
51853.0,STARLINK-3539,PAYLOAD,2023-03-04 00:28:45,15.08878751,9.18e-05,53.2138,284.7176,90.4236,269.6862,0.00099829,0.00015652,0.0,0 STARLINK-3539,1 51853U 22022B   23063.01996743  .00015652  00000-0  99829-3 0  9992,2 51853  53.2138 284.7176 0000918  90.4236 269.6862 15.08878751 56643,6917.762,95.435,540.262,538.992,0.0
51853.0,STARLINK-3539,PAYLOAD,2023-03-04 17:58:00,15.08846369,0.0001118,53.2136,281.446,109.9999,250.1114,0.0007831,0.00012199,0.0,0 STARLINK-3539,1 51853U 22022B   23063.74861360  .00012199  00000-0  78310-3 0  9993,2 51853  53.2136 281.4460 0001118 109.9999 250.1114 15.08846369 56753,6917.861,95.437,540.499,538.953,0.0
51853.0,STARLINK-3539,PAYLOAD,2023-03-04 19:33:23,15.08838757,9.67e-05,53.2137,281.1497,108.2845,251.8253,0.0010193,0.00015971,0.0,0 STARLINK-3539,1 51853U 22022B   23063.81485499  .00015971  00000-0  10193-2 0  9991,2 51853  53.2137 281.1497 0000967 108.2845 251.8253 15.08838757 56769,6917.884,95.438,540.418,539.08,0.0
51853.0,STARLINK-3539,PAYLOAD,2023-03-05 20:59:33,15.08848819,9.94e-05,53.2146,276.3917,75.772,284.3382,0.00062376,9.656e-05,0.0,0 STARLINK-3539,1 51853U 22022B   23064.87469719  .00009656  00000-0  62376-3 0  9999,2 51853  53.2146 276.3917 0000994  75.7720 284.3382 15.08848819 56924,6917.853,95.437,540.406,539.031,0.0
51853.0,STARLINK-3539,PAYLOAD,2023-03-06 20:50:22,15.08821201,0.0001081,53.2136,271.9292,108.9248,251.1861,-7.4893e-05,-1.479e-05,0.0,0 STARLINK-3539,1 51853U 22022B   23065.86831208 -.00001479  00000-0 -74893-4 0  9990,2 51853  53.2136 271.9292 0001081 108.9248 251.1861 15.08821201 57079,6917.938,95.439,540.551,539.055,0.0
51853.0,STARLINK-3539,PAYLOAD,2023-03-07 14:19:36,15.08853778,0.0002485,53.2127,268.657,111.5155,248.6102,0.0011914,0.00018731,0.0,0 STARLINK-3539,1 51853U 22022B   23066.59695228  .00018731  00000-0  11914-2 0  9991,2 51853  53.2127 268.6570 0002485 111.5155 248.6102 15.08853778 57182,6917.838,95.437,541.422,537.984,0.0
51853.0,STARLINK-3539,PAYLOAD,2023-03-08 22:07:19,15.08852175,0.000326,53.2139,262.7106,90.8824,269.2542,0.00080176,0.000125,0.0,0 STARLINK-3539,1 51853U 22022B   23067.92174892  .00012500  00000-0  80176-3 0  9993,2 51853  53.2139 262.7106 0003260  90.8824 269.2542 15.08852175 57388,6917.843,95.437,541.963,537.453,0.0
51853.0,STARLINK-3539,PAYLOAD,2023-03-09 18:47:18,15.08849563,9.68e-05,53.2111,258.843,98.0663,262.0439,0.0001925,2.778e-05,0.0,0 STARLINK-3539,1 51853U 22022B   23068.78285729  .00002778  00000-0  19250-3 0  9991,2 51853  53.2111 258.8430 0000968  98.0663 262.0439 15.08849563 57515,6917.851,95.437,540.386,539.047,0.0
51853.0,STARLINK-3539,PAYLOAD,2023-03-09 20:22:41,15.0885437,0.0001315,53.2143,258.5477,93.5229,266.5913,0.00030464,4.566e-05,0.0,0 STARLINK-3539,1 51853U 22022B   23068.84909718  .00004566  00000-0  30464-3 0  9996,2 51853  53.2143 258.5477 0001315  93.5229 266.5913 15.08854370 57522,6917.836,95.437,540.611,538.792,0.0
51853.0,STARLINK-3539,PAYLOAD,2023-03-10 05:55:01,15.08842231,0.0001359,53.2149,256.761,84.8294,275.2853,0.00016049,2.267e-05,0.0,0 STARLINK-3539,1 51853U 22022B   23069.24654169  .00002267  00000-0  16049-3 0  9997,2 51853  53.2149 256.7610 0001359  84.8294 275.2853 15.08842231 57589,6917.874,95.437,540.679,538.798,0.0
51853.0,STARLINK-3539,PAYLOAD,2023-03-10 21:48:52,15.08837884,0.0001339,53.2139,253.7902,72.2748,287.839,0.00010194,1.335e-05,0.0,0 STARLINK-3539,1 51853U 22022B   23069.90894531  .00001335  00000-0  10194-3 0  9999,2 51853  53.2139 253.7902 0001339  72.2748 287.8390 15.08837884 57686,6917.887,95.438,540.678,538.826,0.0
51853.0,STARLINK-3539,PAYLOAD,2023-03-11 05:45:48,15.08837551,0.0001469,53.2146,252.3024,77.5636,282.5521,9.2975e-05,1.192e-05,0.0,0 STARLINK-3539,1 51853U 22022B   23070.24014697  .00001192  00000-0  92975-4 0  9994,2 51853  53.2146 252.3024 0001469  77.5636 282.5521 15.08837551 57737,6917.888,95.438,540.769,538.737,0.0
51853.0,STARLINK-3539,PAYLOAD,2023-03-11 12:07:21,15.08840323,0.0001509,53.2138,251.1135,71.8789,288.2367,0.00010987,1.461e-05,0.0,0 STARLINK-3539,1 51853U 22022B   23070.50510608  .00001461  00000-0  10987-3 0  9997,2 51853  53.2138 251.1135 0001509  71.8789 288.2367 15.08840323 57775,6917.879,95.438,540.788,538.7,0.0
51853.0,STARLINK-3539,PAYLOAD,2023-03-11 21:39:39,15.08845299,0.0001416,53.2138,249.3283,72.837,287.2777,0.00020863,3.034e-05,0.0,0 STARLINK-3539,1 51853U 22022B   23070.90254409  .00003034  00000-0  20863-3 0  9997,2 51853  53.2138 249.3283 0001416  72.8370 287.2777 15.08845299 57830,6917.864,95.437,540.709,538.75,0.0
51853.0,STARLINK-3539,PAYLOAD,2023-03-12 11:58:08,15.08840284,0.0001131,53.2138,246.6504,76.8716,283.2402,0.00018706,2.691e-05,0.0,0 STARLINK-3539,1 51853U 22022B   23071.49870674  .00002691  00000-0  18706-3 0  9991,2 51853  53.2138 246.6504 0001131  76.8716 283.2402 15.08840284 57928,6917.88,95.438,540.527,538.962,0.0
51853.0,STARLINK-3539,PAYLOAD,2023-03-12 21:30:26,15.08849134,0.0001083,53.2155,244.8667,89.1905,270.9211,0.0002488,3.675e-05,0.0,0 STARLINK-3539,1 51853U 22022B   23071.89614170  .00003675  00000-0  24880-3 0  9995,2 51853  53.2155 244.8667 0001083  89.1905 270.9211 15.08849134 57980,6917.852,95.437,540.467,538.968,0.0
51853.0,STARLINK-3539,PAYLOAD,2023-03-13 11:48:55,15.08837527,0.0001434,53.2153,242.1877,111.8147,248.2998,1.4527e-05,-5.7e-07,0.0,0 STARLINK-3539,1 51853U 22022B   23072.49230673 -.00000057  00000-0  14527-4 0  9994,2 51853  53.2153 242.1877 0001434 111.8147 248.2998 15.08837527 58077,6917.888,95.438,540.745,538.761,0.0
51853.0,STARLINK-3539,PAYLOAD,2023-03-13 21:21:14,15.08839502,0.0001506,53.2164,240.4058,79.1212,280.9949,4.5623e-05,4.38e-06,0.0,0 STARLINK-3539,1 51853U 22022B   23072.88974740  .00000438  00000-0  45623-4 0  9990,2 51853  53.2164 240.4058 0001506  79.1212 280.9949 15.08839502 58131,6917.882,95.438,540.789,538.705,0.0
51853.0,STARLINK-3539,PAYLOAD,2023-03-14 11:39:42,15.08840014,0.0001322,53.216,237.7306,98.2344,261.8799,3.2601e-05,2.31e-06,0.0,0 STARLINK-3539,1 51853U 22022B   23073.48590751  .00000231  00000-0  32601-4 0  9996,2 51853  53.2160 237.7306 0001322  98.2344 261.8799 15.08840014 58227,6917.88,95.438,540.66,538.831,0.0
51853.0,STARLINK-3539,PAYLOAD,2023-03-14 19:36:37,15.08854076,0.0001214,53.2155,236.2437,98.9495,261.1635,0.00031775,4.775e-05,0.0,0 STARLINK-3539,1 51853U 22022B   23073.81709994  .00004775  00000-0  31775-3 0  9991,2 51853  53.2155 236.2437 0001214  98.9495 261.1635 15.08854076 58274,6917.837,95.437,540.542,538.863,0.0
51853.0,STARLINK-3539,PAYLOAD,2023-03-15 11:30:29,15.08840046,0.0001277,53.2147,233.2705,88.1657,271.9481,1.3345e-05,-7.5e-07,0.0,0 STARLINK-3539,1 51853U 22022B   23074.47950491 -.00000075  00000-0  13345-4 0  9998,2 51853  53.2147 233.2705 0001277  88.1657 271.9481 15.08840046 58371,6917.88,95.438,540.629,538.862,0.0
51853.0,STARLINK-3539,PAYLOAD,2023-03-15 19:27:24,15.08854808,0.0001214,53.2153,231.7832,93.1801,266.933,0.00025891,3.837e-05,0.0,0 STARLINK-3539,1 51853U 22022B   23074.81069684  .00003837  00000-0  25891-3 0  9997,2 51853  53.2153 231.7832 0001214  93.1801 266.9330 15.08854808 58424,6917.835,95.437,540.54,538.86,0.0
51853.0,STARLINK-3539,PAYLOAD,2023-03-15 21:02:47,15.08855886,0.0001209,53.2148,231.4854,93.3413,266.7717,0.00026524,3.938e-05,0.0,0 STARLINK-3539,1 51853U 22022B   23074.87693565  .00003938  00000-0  26524-3 0  9990,2 51853  53.2148 231.4854 0001209  93.3413 266.7717 15.08855886 58439,6917.832,95.437,540.533,538.86,0.0
51853.0,STARLINK-3539,PAYLOAD,2023-03-16 11:21:16,15.08832465,0.0001955,53.2153,228.8086,113.5241,246.5957,-0.00022625,-3.886e-05,0.0,0 STARLINK-3539,1 51853U 22022B   23075.47310670 -.00003886  00000-0 -22625-3 0  9992,2 51853  53.2153 228.8086 0001955 113.5241 246.5957 15.08832465 58524,6917.903,95.438,541.121,538.416,0.0
51853.0,STARLINK-3539,PAYLOAD,2023-03-16 19:18:12,15.08828065,0.0001594,53.213,227.3206,103.9365,256.1804,-0.00016613,-2.93e-05,0.0,0 STARLINK-3539,1 51853U 22022B   23075.80431216 -.00002930  00000-0 -16613-3 0  9998,2 51853  53.2130 227.3206 0001594 103.9365 256.1804 15.08828065 58570,6917.917,95.438,540.885,538.679,0.0
51853.0,STARLINK-3539,PAYLOAD,2023-03-17 03:15:08,15.08825416,0.0001819,53.214,225.8348,93.2671,266.8529,-8.3808e-05,-1.621e-05,0.0,0 STARLINK-3539,1 51853U 22022B   23076.13551830 -.00001621  00000-0 -83808-4 0  9997,2 51853  53.2140 225.8348 0001819  93.2671 266.8529 15.08825416 58627,6917.925,95.438,541.048,538.532,0.0
51853.0,STARLINK-3539,PAYLOAD,2023-03-17 12:47:27,15.08830401,0.0001505,53.2148,224.052,87.9413,272.1751,0.00012281,1.667e-05,0.0,0 STARLINK-3539,1 51853U 22022B   23076.53296018  .00001667  00000-0  12281-3 0  9999,2 51853  53.2148 224.0520 0001505  87.9413 272.1751 15.08830401 58687,6917.91,95.438,540.816,538.734,0.0
51853.0,STARLINK-3539,PAYLOAD,2023-03-17 19:09:00,15.08838171,0.0001263,53.2144,222.8621,93.2867,266.8269,0.0002671,3.965e-05,0.0,0 STARLINK-3539,1 51853U 22022B   23076.79791793  .00003965  00000-0  26710-3 0  9992,2 51853  53.2144 222.8621 0001263  93.2867 266.8269 15.08838171 58726,6917.886,95.438,540.625,538.877,0.0
51853.0,STARLINK-3539,PAYLOAD,2023-03-18 14:13:37,15.08870158,0.0001255,53.2144,219.2942,89.8897,270.2239,0.0010292,0.00016143,0.0,0 STARLINK-3539,1 51853U 22022B   23077.59279020  .00016143  00000-0  10292-2 0  9994,2 51853  53.2144 219.2942 0001255  89.8897 270.2239 15.08870158 58847,6917.788,95.436,540.521,538.785,0.0
